#dP2024  6 29 18  0  0.00000000      96 __u+U IGS20 EXT  IAC
## 2320 583200.00000000   900.00000000 60490 0.7500000000000
+   53   G02G03G04G05G06G07G08G09G10G11G12G13G14G15G16G17G18
+        G19G20G21G22G24G25G26G27G28G29G30G31G32R01R02R03R04
+        R05R07R08R09R11R12R13R14R15R16R17R18R19R20R21R22R24
+        R25R26  0  0  0  0  0  0  0  0  0  0  0  0  0  0  0
+          0  0  0  0  0  0  0  0  0  0  0  0  0  0  0  0  0
++         9  9  9  9  7  8  9  9  7  8 10  8 10  8  7 10  7
++        10  8  8  9 10  9  8  9  7  8  9  9  8 10 10  8 11
++        10  9  9  8  9 10  8  9  8  8  9  8  8 10  7  8  9
++         8 11  0  0  0  0  0  0  0  0  0  0  0  0  0  0  0
++         0  0  0  0  0  0  0  0  0  0  0  0  0  0  0  0  0
%c M  cc GPS ccc cccc cccc cccc cccc ccccc ccccc ccccc ccccc
%c cc cc ccc ccc cccc cccc cccc cccc ccccc ccccc ccccc ccccc
%f  0.0000000  0.000000000  0.00000000000  0.000000000000000
%f  0.0000000  0.000000000  0.00000000000  0.000000000000000
%i    0    0    0    0      0      0      0      0         0
%i    0    0    0    0      0      0      0      0         0
/* IAC                                ULTRA-RAPID PREDICTION
/* S/V CLOCKS ARE ALIGNED TO GNSS TIME                      
/* G:C1WC2W R:C1PC2P E:C1XC5X C:C2IC6I J:C1CC2S             
/* PCV:IGS20_2247 OL/AL:FES2004  NONE     YN ORB:CoN CLK:CoN
*  2024 06 30  2 30  0.00000000
PG02 -22693.177041 -13505.939257   4565.086242   -408.291302
PG03 -13400.716640  -6471.698387  21848.424948    436.681157
PG04 -23236.441729  -2672.963205  12731.130949    393.780197
PG05   6722.065032  21019.184420 -14901.307309   -178.077420
PG06  -3598.727179  15702.206313  21153.916268    189.971612
PG07 -19088.960000    116.112394 -18133.762562    -80.487651
PG08 -15419.480860  -9395.889188 -19723.237571    253.041565
PG09 -25459.104483   7437.805249   1787.390259    254.198761
PG10  10474.293846 -22810.982793  -7951.919143    -54.296600
PG11   8947.869094  21530.261250  12800.495684   -695.695461
PG12  12407.221418   9818.233077  21060.673704   -518.297419
PG13   6303.803728  14077.320149 -21857.193188    661.359022
PG14 -13209.839815  20006.053420 -11155.268637    437.399467
PG15  16414.717386   8135.984192 -19795.642000    175.708098
PG16  -2127.595772 -23112.155326 -12824.322749   -250.245908
PG17 -19771.541348  13522.567187  12068.545831    686.500051
PG18  18222.969708   -835.358520 -19364.732150   -631.093630
PG19 -11794.806650  15097.031895  18045.339473    503.560102
PG20   2603.953940  25997.358860  -5136.951404    373.285628
PG21 -21278.854764 -16785.142939   -735.386056    112.144705
PG22  -9878.934066  24611.427689  -2829.149530    -33.662819
PG24  21950.272569  15253.932617   1297.051514   -480.746809
PG25  15688.635618  -1949.709664  20974.632409    497.986673
PG26   4129.191183 -26016.433300    757.802348    128.493683
PG27  -3611.876032 -14919.380880 -21950.699603    -29.823676
PG28   5697.444833 -14743.699753  21335.112763   -310.737892
PG29  26051.115794  -2870.347160   4644.627514   -591.912107
PG30 -11426.080694  10807.832182 -21258.125528   -365.973599
PG31  -4628.882138 -20237.686830  16123.717207   -227.101396
PG32  17225.622792 -15332.729571  13212.943132   -614.409529
PR01  20221.067585  -9730.790098 -12144.004005     89.914009
PR02  18150.813602 -17221.026143   4838.366601    -23.494537
PR03   5295.476720 -15876.688159  19274.145566    102.990803
PR04  -9742.940291  -5768.560664  22887.145972    243.354860
PR05 -19879.178099   7256.527644  14267.922232    133.848910
PR07  -4792.894812  15620.055097 -19565.032782     85.651699
PR08  10021.483444   5580.856771 -22720.337559     -5.437215
PR09  -5566.294367  17488.610189 -17650.186913    195.021836
PR11   9561.226646  19853.213802  12846.112030     19.784219
PR12  11289.696532    976.835615  22883.481123     41.900071
PR13   6773.182002 -15204.769583  19321.655574    -48.826742
PR14  -3022.012401 -25204.228777   2654.063177     26.651116
PR15  -9936.392303 -18771.872251 -14109.732893     78.350170
PR16 -11164.194672  -1234.528234 -22889.238571     26.929769
PR17  -6807.785246 -12943.993135 -20883.519049    100.321522
PR18 -20350.464945 -12597.874637  -8874.949796    149.523075
PR19 -23617.731910  -7506.812287   6019.211459   -282.136709
PR20 -12403.516950   5094.360056  21709.774900   -115.306589
PR21   6433.492928  12884.073744  21056.642582   -113.483748
PR22  20561.879151  12961.258323   7747.548923     95.937307
PR24  11820.272477  -6359.307585 -21684.268760    -61.849183
PR25   6556.319683  13541.768158  20607.065216    -94.232014
PR26   8991.145214   6511.918397 -22946.501214     -5.173244
*  2024 06 30  2 45  0.00000000
PG02 -22819.054197 -13853.856839   1743.908419   -408.284832
PG03 -12901.670504  -8916.728882  21295.277259    436.696683
PG04 -21787.503484  -3315.826949  14940.141620    393.787357
PG05   6338.265163  22531.223865 -12656.699078   -178.078539
PG06  -5461.796188  14120.665888  21869.194517    189.951868
PG07 -20553.425710  -1344.006750 -16496.718862    -80.479736
PG08 -13321.717305 -10305.812814 -20738.059198    253.057091
PG09 -25199.876475   7066.439187   4605.429443    254.212143
PG10  10465.039194 -21698.810331 -10600.636709    -54.304730
PG11   7669.776449  20576.503370  15006.978114   -695.702164
PG12  11728.774969  12141.924053  20236.890065   -518.300193
PG13   3889.811244  14569.379076 -22077.942043    661.361338
PG14 -13169.308254  18557.773672 -13478.016925    437.407580
PG15  14500.279960   9275.133498 -20773.656113    175.711927
PG16  -1553.065392 -24298.550075 -10383.601702   -250.236336
PG17 -20952.689314  13671.183236   9576.362477    686.494198
PG18  19739.429814    651.976477 -17844.047643   -631.097646
PG19 -13785.907442  15398.711914  16274.926003    503.564970
PG20   2341.810751  26429.154441  -2345.480412    373.285281
PG21 -20945.823057 -16765.380862  -3518.984023    112.142373
PG22  -9960.337881  24042.086999  -5614.506251    -33.667091
PG24  21806.390508  15519.731396  -1480.039770   -480.748669
PG25  15323.337192    522.311478  21343.128860    497.987089
PG26   4467.984941 -25712.868725   3559.455196    128.487773
PG27  -1308.631689 -15707.667738 -21615.290652    -29.824627
PG28   7642.829059 -13229.050430  21716.237392   -310.752629
PG29  25437.544187  -2487.892263   7402.848277   -591.910515
PG30 -13274.550158   9191.906611 -20968.457267   -365.967874
PG31  -3009.689857 -19050.148958  17872.704376   -227.101188
PG32  18569.797391 -15591.441651  10817.950712   -614.408110
PR01  18915.214387  -8700.451258 -14748.936584     89.915046
PR02  18344.913895 -17603.270481   1642.465669    -23.494687
PR03   6934.893595 -17421.776065  17310.309770    102.991474
PR04  -7566.179635  -7587.767026  23177.055672    243.356373
PR05 -18331.899497   6132.984149  16665.480863    133.849436
PR07  -6476.370882  17198.023467 -17673.030444     85.652498
PR08   7859.105825   7422.021080 -23043.800102     -5.437436
PR09  -6026.001628  15236.465754 -19495.554792    195.023987
PR11   9965.607888  21211.694446  10061.023607     19.783135
PR12  11851.637231   3700.091821  22313.995820     41.900504
PR13   7220.397462 -12764.143135  20863.944815    -48.827036
PR14  -3031.110139 -24673.053871   5794.656640     26.651218
PR15 -10345.528227 -20302.294118 -11451.865643     78.349870
PR16 -11745.748494  -3964.317982 -22283.775840     26.930095
PR17  -4328.304221 -11991.408418 -22082.499264    100.324573
PR18 -19217.644632 -11982.008116 -11772.500581    149.524848
PR19 -24206.546817  -7512.076079   2832.503145   -282.138001
PR20 -14845.230280   4206.350997  20326.247293   -115.306788
PR21   3946.632682  11899.567926  22214.145995   -113.486524
PR22  19557.559791  12415.461983  10691.508392     95.932325
PR24  14289.753445  -5549.737705 -20383.231327    -61.850414
PR25   4146.325993  12516.685284  21842.014446    -94.248051
PR26   6840.719163   8376.322137 -23080.937560     -5.172250
EOF
